NORAD_CAT_ID,OBJECT_NAME,OBJECT_TYPE,EPOCH,MEAN_MOTION,ECCENTRICITY,INCLINATION,RA_OF_ASC_NODE,ARG_OF_PERICENTER,MEAN_ANOMALY,BSTAR,MEAN_MOTION_DOT,MEAN_MOTION_DDOT,TLE_LINE0,TLE_LINE1,TLE_LINE2,SEMIMAJOR_AXIS,PERIOD,APOGEE,PERIGEE,DECAYED
52304.0,STARLINK-3744,PAYLOAD,2022-07-24 14:00:01,15.24470542,0.0001601,53.2174,273.6928,54.5859,179.062,-0.046564,-0.01061679,0.0,0 STARLINK-3744,1 52304U 22041AV  22205.58334491 -.01061679  00000-0 -46564-1 0  9999,2 52304  53.2174 273.6928 0001601  54.5859 179.0620 15.24470542  1302,6870.513000000001,94.459,493.478,491.278,0.0
52304.0,STARLINK-3744,PAYLOAD,2022-07-24 22:00:00,15.23714108,0.0001465,53.2175,272.1563,56.4544,207.1101,-0.047905,-0.01067201,0.0,0 STARLINK-3744,1 52304U 22041AV  22205.91667824 -.01067201  00000-0 -47905-1 0  9992,2 52304  53.2175 272.1563 0001465  56.4544 207.1101 15.23714108  1307,6872.786,94.506,495.658,493.645,0.0
52304.0,STARLINK-3744,PAYLOAD,2022-07-25 06:00:00,15.22952899,0.000148,53.2175,270.6229,53.3228,239.2459,-0.048825,-0.01063558,0.0,0 STARLINK-3744,1 52304U 22041AV  22206.25001157 -.01063558  00000-0 -48825-1 0  9994,2 52304  53.2175 270.6229 0001480  53.3228 239.2459 15.22952899 16062,6875.076,94.553,497.959,495.924,0.0
52304.0,STARLINK-3744,PAYLOAD,2022-07-25 14:00:01,15.221924800000002,0.0001428,53.2174,269.0932,54.0663,266.5932,-0.049873,-0.01062192,0.0,0 STARLINK-3744,1 52304U 22041AV  22206.58334491 -.01062192  00000-0 -49873-1 0  9997,2 52304  53.2174 269.0932 0001428  54.0663 266.5932 15.22192480  1309,6877.366,94.6,500.213,498.249,0.0
52304.0,STARLINK-3744,PAYLOAD,2022-07-25 22:00:00,15.21434748,0.0001395,53.2174,267.562,50.4874,297.3514,-0.051203,-0.01065964,0.0,0 STARLINK-3744,1 52304U 22041AV  22206.91667824 -.01065964  00000-0 -51203-1 0  9993,2 52304  53.2174 267.5620 0001395  50.4874 297.3514 15.21434748  1306,6879.649,94.648,502.474,500.554,0.0
52304.0,STARLINK-3744,PAYLOAD,2022-07-26 06:00:00,15.20674926,0.00015,53.2176,266.0341,45.952,328.1525,-0.0522899999999999,-0.01064612,0.0,0 STARLINK-3744,1 52304U 22041AV  22207.25001157 -.01064612  00000-0 -52290-1 0  9998,2 52304  53.2176 266.0341 0001500  45.9520 328.1525 15.20674926 16211,6881.941,94.695,504.838,502.773,0.0
52304.0,STARLINK-3744,PAYLOAD,2022-07-26 14:00:01,15.19913151,0.0001441999999999,53.2174,264.5096,51.018,348.4398,-0.053285,-0.0106117,0.0,0 STARLINK-3744,1 52304U 22041AV  22207.58334491 -.01061170  00000-0 -53285-1 0  9995,2 52304  53.2174 264.5096 0001442  51.0180 348.4398 15.19913151  1305,6884.24,94.742,507.098,505.112,0.0
52304.0,STARLINK-3744,PAYLOAD,2022-07-26 22:00:00,15.19154594,0.0001405,53.2175,262.9836,53.4077,10.4916,-0.05459,-0.01063129,0.0,0 STARLINK-3744,1 52304U 22041AV  22207.91667824 -.01063129  00000-0 -54590-1 0  9997,2 52304  53.2175 262.9836 0001405  53.4077  10.4916 15.19154594  1300,6886.531,94.79,509.364,507.429,0.0
52304.0,STARLINK-3744,PAYLOAD,2022-07-27 14:00:01,15.17632468,0.0001545,53.2174,259.942,53.1638,56.8788,-0.0567299999999999,-0.01070908,0.0,0 STARLINK-3744,1 52304U 22041AV  22208.58334491 -.01070908  00000-0 -56730-1 0  9993,2 52304  53.2174 259.9420 0001545  53.1638  56.8788 15.17632468  1309,6891.135,94.885,514.065,511.935,0.0
52304.0,STARLINK-3744,PAYLOAD,2022-07-27 22:00:00,15.16874931,0.0001659,53.2175,258.4213,47.1028,84.6428,-0.058178,-0.01074275,0.0,0 STARLINK-3744,1 52304U 22041AV  22208.91667824 -.01074275  00000-0 -58178-1 0  9998,2 52304  53.2175 258.4213 0001659  47.1028  84.6428 15.16874931  1308,6893.429,94.932,516.438,514.151,0.0
52304.0,STARLINK-3744,PAYLOAD,2022-07-28 06:00:00,15.1611638,0.0001674,53.2176,256.9043,51.4502,101.0847,-0.05955,-0.01075804,0.0,0 STARLINK-3744,1 52304U 22041AV  22209.25001157 -.01075804  00000-0 -59550-1 0  9991,2 52304  53.2176 256.9043 0001674  51.4502 101.0847 15.16116380 16521,6895.728,94.98,518.748,516.439,0.0
52304.0,STARLINK-3744,PAYLOAD,2022-07-28 14:00:01,15.15352744,0.0001591,53.2174,255.3902,56.822,115.5908,-0.0604139999999999,-0.01068402,0.0,0 STARLINK-3744,1 52304U 22041AV  22209.58334491 -.01068402  00000-0 -60414-1 0  9994,2 52304  53.2174 255.3902 0001591  56.8220 115.5908 15.15352744  1303,6898.045,95.027,521.007,518.812,0.0
52304.0,STARLINK-3744,PAYLOAD,2022-07-28 22:00:00,15.14595812,0.0001641,53.2175,253.8748,51.8572,139.5204,-0.062002,-0.01072779,0.0,0 STARLINK-3744,1 52304U 22041AV  22209.91667824 -.01072779  00000-0 -62002-1 0  9997,2 52304  53.2175 253.8748 0001641  51.8572 139.5204 15.14595812  1305,6900.343000000003,95.075,523.34,521.076,0.0
52304.0,STARLINK-3744,PAYLOAD,2022-07-29 06:00:00,15.13836945,0.0001675,53.2177,252.3635,53.0627,156.3662,-0.063421,-0.01073896,0.0,0 STARLINK-3744,1 52304U 22041AV  22210.25001157 -.01073896  00000-0 -63421-1 0  9994,2 52304  53.2177 252.3635 0001675  53.0627 156.3662 15.13836945 16673,6902.649,95.123,525.67,523.3580000000002,0.0
52304.0,STARLINK-3744,PAYLOAD,2022-07-29 14:00:01,15.130746599999998,0.0001595,53.2173,250.8545,55.7362,170.8322,-0.064454,-0.01068553,0.0,0 STARLINK-3744,1 52304U 22041AV  22210.58334491 -.01068553  00000-0 -64454-1 0  9991,2 52304  53.2173 250.8545 0001595  55.7362 170.8322 15.13074660  1304,6904.967,95.17,527.933,525.731,0.0
52304.0,STARLINK-3744,PAYLOAD,2022-07-29 22:00:00,15.1231676,0.0001538,53.2175,249.3443,56.2808,186.5148,-0.066045,-0.01071599,0.0,0 STARLINK-3744,1 52304U 22041AV  22210.91667824 -.01071599  00000-0 -66045-1 0  9999,2 52304  53.2175 249.3443 0001538  56.2808 186.5148 15.12316760  1303,6907.274,95.218,530.201,528.076,0.0
52304.0,STARLINK-3744,PAYLOAD,2022-07-30 06:00:00,15.11558074,0.0001728,53.2176,247.8385,46.2083,211.9004,-0.06755,-0.01072913,0.0,0 STARLINK-3744,1 52304U 22041AV  22211.25001157 -.01072913  00000-0 -67550-1 0  9991,2 52304  53.2176 247.8385 0001728  46.2083 211.9004 15.11558074 16829,6909.585,95.266,532.644,530.256,0.0
52304.0,STARLINK-3744,PAYLOAD,2022-07-30 14:00:01,15.10797563,0.0001419,53.2172,246.3345,60.8794,211.6303,-0.068833,-0.01070488,0.0,0 STARLINK-3744,1 52304U 22041AV  22211.58334491 -.01070488  00000-0 -68833-1 0  9997,2 52304  53.2172 246.3345 0001419  60.8794 211.6303 15.10797563  1306,6911.903,95.314,534.749,532.788,0.0
52304.0,STARLINK-3744,PAYLOAD,2022-07-30 22:00:00,15.10029041,0.0001356,53.2174,244.8302,55.5814,230.42,-0.069073,-0.01052887,0.0,0 STARLINK-3744,1 52304U 22041AV  22211.91667824 -.01052887  00000-0 -69073-1 0  9993,2 52304  53.2174 244.8302 0001356  55.5814 230.4200 15.10029041  1302,6914.248000000001,95.362,537.0509999999998,535.1759999999998,0.0
52304.0,STARLINK-3744,PAYLOAD,2022-07-31 06:00:02,15.09181875,0.0001644,53.2176,243.3313,38.9249,259.7201,-0.029251,-0.00442192,0.0,0 STARLINK-3744,1 52304U 22041AV  22212.25002315 -.00442192  00000-0 -29251-1 0  9994,2 52304  53.2176 243.3313 0001644  38.9249 259.7201 15.09181875 16973,6916.8359999999975,95.416,539.8380000000002,537.563,0.0
52304.0,STARLINK-3744,PAYLOAD,2022-07-31 14:00:01,15.08836672,0.0001486999999999,53.2172,241.8349,58.5632,251.829,7.4514e-05,8.98e-06,0.0,0 STARLINK-3744,1 52304U 22041AV  22212.58334491  .00000898  00000-0  74514-4 0  9999,2 52304  53.2172 241.8349 0001487  58.5632 251.8290 15.08836672  1303,6917.891,95.438,540.784,538.727,0.0
52304.0,STARLINK-3744,PAYLOAD,2022-07-31 22:00:00,15.0885448,0.0001656,53.2117,240.3472,59.8619,262.1422,0.00068713,0.00010669,0.0,0 STARLINK-3744,1 52304U 22041AV  22212.91667824  .00010669  00000-0  68713-3 0  9995,2 52304  53.2117 240.3472 0001656  59.8619 262.1422 15.08854480  1309,6917.8359999999975,95.437,540.847,538.556,0.0
52304.0,STARLINK-3744,PAYLOAD,2022-08-01 06:00:00,15.08861177,0.0001781,53.212,238.8516,58.7278,274.8762,-0.0050107,-0.00079204,0.0,0 STARLINK-3744,1 52304U 22041AV  22213.25001157 -.00079204  00000-0 -50107-2 0  9993,2 52304  53.2120 238.8516 0001781  58.7278 274.8762 15.08861177 17127,6917.816,95.436,540.913,538.4490000000002,0.0
52304.0,STARLINK-3744,PAYLOAD,2022-08-01 14:00:01,15.08796933,0.0001807,53.2116,237.3557,52.6464,292.5463,0.00087487,0.00013647,0.0,0 STARLINK-3744,1 52304U 22041AV  22213.58334491  .00013647  00000-0  87487-3 0  9998,2 52304  53.2116 237.3557 0001807  52.6464 292.5463 15.08796933  1305,6918.012,95.44,541.127,538.627,0.0
52304.0,STARLINK-3744,PAYLOAD,2022-08-01 22:00:00,15.08767675,0.0001657,53.2117,235.8575,59.1319,297.6201,0.0048096,0.00076941,0.0,0 STARLINK-3744,1 52304U 22041AV  22213.91667824  .00076941  00000-0  48096-2 0  9992,2 52304  53.2117 235.8575 0001657  59.1319 297.6201 15.08767675  1300,6918.101,95.442,541.113,538.82,0.0
52304.0,STARLINK-3744,PAYLOAD,2022-08-02 14:00:01,15.08829998,0.0001784,53.2118,232.866,49.6012,330.2722,0.00052096,8.011e-05,0.0,0 STARLINK-3744,1 52304U 22041AV  22214.58334491  .00008011  00000-0  52096-3 0  9996,2 52304  53.2118 232.8660 0001784  49.6012 330.2722 15.08829998 17326,6917.911,95.438,541.01,538.5419999999998,0.0
52304.0,STARLINK-3744,PAYLOAD,2022-08-03 14:00:01,15.08839338,0.000188,53.2123,228.3763,49.56800000000001,5.0737,0.00014228,1.977e-05,0.0,0 STARLINK-3744,1 52304U 22041AV  22215.58334491  .00001977  00000-0  14228-3 0  9996,2 52304  53.2123 228.3763 0001880  49.5680   5.0737 15.08839338  1306,6917.882,95.438,541.048,538.447,0.0
52304.0,STARLINK-3744,PAYLOAD,2022-08-03 22:00:01,15.08817697,0.0001748,53.2127,226.878,56.3564,9.9525,0.002799,0.00044513,0.0,0 STARLINK-3744,1 52304U 22041AV  22215.91668981  .00044513  00000-0  27990-2 0  9999,2 52304  53.2127 226.8780 0001748  56.3564   9.9525 15.08817697 17525,6917.949000000001,95.439,541.023,538.604,0.0
52304.0,STARLINK-3744,PAYLOAD,2022-08-04 14:00:01,15.0884913,0.0001964,53.2129,223.8867,50.3031,39.1276,-0.00030736,-5.178e-05,0.0,0 STARLINK-3744,1 52304U 22041AV  22216.58334491 -.00005178  00000-0 -30736-3 0  9998,2 52304  53.2129 223.8867 0001964  50.3031  39.1276 15.08849130  1307,6917.852,95.437,541.076,538.359,0.0
